FENGYUN 1C DEB          
1 37687U 99025ELC 26062.30844179  .00005848  00000+0  32581-2 0  9993
2 37687  98.1986  92.6159 0337689 136.8862 287.1542 13.86110343843707
FENGYUN 1C DEB          
1 37689U 99025ELE 26063.58238626  .00011458  00000+0  29468-2 0  9994
2 37689  98.9144 114.1697 0016932 357.7287   2.3825 14.50236559589988
FENGYUN 1C DEB          
1 37691U 99025ELG 26047.53369729  .00025342  00000+0  30884-2 0  9994
2 37691  98.3705 316.8342 0269289 306.6389  51.0321 14.60850134865933
FENGYUN 1C DEB          
1 37693U 99025ELJ 26061.95193231  .00001057  00000+0  62382-3 0  9997
2 37693  98.6979  63.8845 0070872 207.2908 184.5695 14.08693524632780
FENGYUN 1C DEB          
1 37694U 99025ELK 26034.01417918  .00003840  00000+0  17387-2 0  9992
2 37694  98.1932 102.5616 0144661 300.0346 180.9642 14.17105548524447
FENGYUN 1C DEB          
1 37695U 99025ELL 26034.85303504  .00001259  00000+0  75682-3 0  9995
2 37695  98.2031  75.2056 0464719 118.9021  51.9274 13.65192869899760
FENGYUN 1C DEB          
1 37707U 99025ELY 26061.28615918  .00002860  00000+0  56854-3 0  9990
2 37707 100.2220  88.1489 0142030 153.7830 267.1650 14.57001175867243
FENGYUN 1C DEB          
1 37712U 99025EMD 26061.20169052  .00001649  00000+0  55427-3 0  9990
2 37712  98.8263 207.1560 0080113 118.6114  55.0095 14.36732831651019
FENGYUN 1C DEB          
1 37714U 99025EMF 26061.26292750  .00006571  00000+0  23749-2 0  9990
2 37714  98.8918 180.0227 0049711 207.5721 152.2825 14.33170876586489
FENGYUN 1C DEB          
1 37715U 99025EMG 26061.28155157  .00000550  00000+0  41399-3 0  9995
2 37715  98.9572  71.8049 0112813 253.4868 163.8985 13.95560847589130
FENGYUN 1C DEB          
1 37717U 99025EMJ 26062.15227060  .00038398  00000+0  29579-2 0  9993
2 37717  98.7471  32.2792 0047346 201.9381 221.5838 15.00626108906010
FENGYUN 1C DEB          
1 37719U 99025EML 26036.36375233  .00008805  00000+0  19465-2 0  9998
2 37719  99.4955  74.8989 0044597  97.7515 281.0424 14.56910924 10348
FENGYUN 1C DEB          
1 37900U 99025EMZ 26063.11540545  .00003736  00000+0  19865-2 0  9995
2 37900 102.2937 172.8961 0207953  34.1524 327.2810 14.03970808609563
FENGYUN 1C DEB          
1 37902U 99025ENB 26063.04507719  .00002182  00000+0  24106-2 0  9993
2 37902  98.6918 278.4528 0318554  96.8923 266.8561 13.52979666640764
FENGYUN 1C DEB          
1 37906U 99025ENF 26063.36437652  .00000839  00000+0  75830-3 0  9998
2 37906  99.5904 110.5105 0163689 173.5160 251.8551 13.80922270605824
FENGYUN 1C DEB          
1 37907U 99025ENG 26063.55609962  .00005822  00000+0  24851-2 0  9998
2 37907  99.0804 184.2158 0057139 308.7621  50.8459 14.24552997844374
